BUFENG 1A               
1 44310U 19032A   26068.91906837  .00016103  00000+0  62414-3 0  9992
2 44310  44.9758 238.6688 0005472  55.4463 304.6935 15.26012088372013
STARLINK-31863          
1 59789U 24093H   26068.46042682  .00000928  00000+0  43258-4 0  9994
2 59789  43.0004 209.9087 0001219 266.9233  93.1479 15.27574977102662
